{
    "links": {
        "self": "http://www.neowsapp.com/rest/v1/neo/3789077?api_key=iIulBulltgU6a56xZRHN4H3l9WmuAYTsLGpBGhQ2"
    },
    "id": "3789077",
    "neo_reference_id": "3789077",
    "name": "(2017 UO51)",
    "designation": "2017 UO51",
    "nasa_jpl_url": "http://ssd.jpl.nasa.gov/sbdb.cgi?sstr=3789077",
    "absolute_magnitude_h": 20.0,
    "estimated_diameter": {
        "kilometers": {
            "estimated_diameter_min": 0.2658,
            "estimated_diameter_max": 0.5943468684
        },
        "meters": {
            "estimated_diameter_min": 265.8,
            "estimated_diameter_max": 594.3468684194
        },
        "miles": {
            "estimated_diameter_min": 0.1651604118,
            "estimated_diameter_max": 0.369309908
        },
        "feet": {
            "estimated_diameter_min": 872.047272,
            "estimated_diameter_max": 1949.9569797852
        }
    },
    "is_potentially_hazardous_asteroid": false,
    "close_approach_data": [
        {
            "close_approach_date": "1931-02-27",
            "close_approach_date_full": "1931-Feb-27 04:13",
            "epoch_date_close_approach": -1225828020000,
            "relative_velocity": {
                "kilometers_per_second": "5.8087254614",
                "kilometers_per_hour": "20911.4116609729",
                "miles_per_hour": "12993.537984564"
            },
            "miss_distance": {
                "astronomical": "0.6996038836",
                "lunar": "272.1459107204",
                "kilometers": "104659250.830287932",
                "miles": "65032242.8807681816"
            },
            "orbiting_body": "Juptr"
        },
        {
            "close_approach_date": "2014-03-26",
            "close_approach_date_full": "2014-Mar-26 14:18",
            "epoch_date_close_approach": 1395843480000,
            "relative_velocity": {
                "kilometers_per_second": "5.5794704376",
                "kilometers_per_hour": "20086.0935752086",
                "miles_per_hour": "12480.7174217734"
            },
            "miss_distance": {
                "astronomical": "0.7527716703",
                "lunar": "292.8281797467",
                "kilometers": "112613038.473222261",
                "miles": "69974497.3467027618"
            },
            "orbiting_body": "Juptr"
        },
        {
            "close_approach_date": "2022-08-21",
            "close_approach_date_full": "2022-Aug-21 23:17",
            "epoch_date_close_approach": 1661123820000,
            "relative_velocity": {
                "kilometers_per_second": "14.5128446545",
                "kilometers_per_hour": "52246.2407560524",
                "miles_per_hour": "32463.7822075593"
            },
            "miss_distance": {
                "astronomical": "0.4252643384",
                "lunar": "165.4278276376",
                "kilometers": "63618639.211599208",
                "miles": "39530789.3390287504"
            },
            "orbiting_body": "Earth"
        },
        {
            "close_approach_date": "2132-11-22",
            "close_approach_date_full": "2132-Nov-22 23:07",
            "epoch_date_close_approach": 5140451220000,
            "relative_velocity": {
                "kilometers_per_second": "5.9445773766",
                "kilometers_per_hour": "21400.478555741",
                "miles_per_hour": "13297.4251337047"
            },
            "miss_distance": {
                "astronomical": "0.8778500429",
                "lunar": "341.4836666881",
                "kilometers": "131324496.597248623",
                "miles": "81601258.2849040774"
            },
            "orbiting_body": "Juptr"
        }
    ],
    "orbital_data": {
        "orbit_id": "2",
        "orbit_determination_date": "2017-11-19 06:20:41",
        "first_observation_date": "2017-10-28",
        "last_observation_date": "2017-11-18",
        "data_arc_in_days": 21,
        "observations_used": 14,
        "orbit_uncertainty": "7",
        "minimum_orbit_intersection": ".158306",
        "jupiter_tisserand_invariant": "2.879",
        "epoch_osculation": "2459000.5",
        "eccentricity": ".6290897241264309",
        "semi_major_axis": "3.001741120417883",
        "inclination": "14.06905184279782",
        "ascending_node_longitude": "82.11062602284871",
        "orbital_period": "1899.583019645414",
        "perihelion_distance": "1.113376627075233",
        "perihelion_argument": "222.4066706856096",
        "aphelion_distance": "4.890105613760532",
        "perihelion_time": "2459808.794973845964",
        "mean_anomaly": "206.8157550498298",
        "mean_motion": ".1895152758668055",
        "equinox": "J2000",
        "orbit_class": {
            "orbit_class_type": "AMO",
            "orbit_class_description": "Near-Earth asteroid orbits similar to that of 1221 Amor",
            "orbit_class_range": "1.017 AU < q (perihelion) < 1.3 AU"
        }
    },
    "is_sentry_object": false
}